    PK20V040  2021 07 17.7818  5.148429  0.449675  256.9945  203.4902   14.2432  20220610   9.0  4.0  P/2020 V4 (Rankin)                                       MPEC 2022-K19
    PK20W010  2020 04  6.5606  5.289586  0.266071  264.9652  124.2660   10.7905  20220610  10.0  4.0  P/2020 W1 (Rankin)                                       MPEC 2021-BE3
    CK20W050  2020 11 30.0569  3.364380  1.000667   24.4803   75.4932   88.5848  20220610  15.0  4.0  C/2020 W5 (Lemmon)                                       MPEC 2021-BE3
    PK20W05J  2021 07  2.3106  4.986596  0.171251  338.3177  177.8108   22.2943  20220610   8.5  4.0  P/2020 WJ5 (Lemmon)                                      MPEC 2022-L66
    PK20X010  2020 07 20.5875  2.872928  0.365554  323.3276   56.0098   31.6932  20220610  13.0  4.0  P/2020 X1 (ATLAS)                                        MPEC 2021-P47
    CK20X020  2020 11 15.8323  3.827635  0.766898  347.3402  105.4466   18.1874  20220610  10.6  4.0  C/2020 X2 (ATLAS)                                        MPEC 2021-U31
    CK20X040  2020 11 16.5291  5.219856  0.873691  140.3033  161.8860   80.6167  20220610   9.0  4.0  C/2020 X4 (Leonard)                                      MPEC 2021-S45
    CK20Y020  2022 06 17.6879  3.132487  0.997153  266.1028   26.5142  101.2978  20220610   6.5  4.0  C/2020 Y2 (ATLAS)                                        MPEC 2022-L66
    CK20Y030  2020 12  3.4087  1.998408  0.986372  342.0085  191.4393   83.1012  20220610  13.5  4.0  C/2020 Y3 (ATLAS)                                        MPEC 2021-R75
    CK21A010  2022 01  3.2952  0.615262  0.999979  225.0916  255.8968  132.6861  20220610   8.5  4.0  C/2021 A1 (Leonard)                                      MPEC 2022-H04
    CK21A020  2021 01 22.5699  1.412451  0.994202  338.8160  125.2295  106.9781  20220610  13.5  4.0  C/2021 A2 (NEOWISE)                                      MPEC 2022-F14
    CK21A040  2021 03 19.9549  1.146629  0.973205  204.7053  307.1100  111.5385  20220610  16.0  4.0  C/2021 A4 (NEOWISE)                                      MPEC 2022-ED3
    PK21A050  2020 11 12.0862  2.621088  0.139857   61.2310  328.7681   18.1872  20220610  15.0  4.0  P/2021 A5 (PANSTARRS)                                    MPEC 2021-BE3
    CK21A060  2021 05  3.9358  7.928165  0.999229  351.6798  164.0794   75.6124  20220610   7.0  4.0  C/2021 A6 (PANSTARRS)                                    MPEC 2022-K19
    CK21A070  2021 07 15.2770  1.967372  0.999504  356.0422  154.5177   78.1498  20220610  10.0  4.0  C/2021 A7 (NEOWISE)                                      MPEC 2022-GA9
    CK21A090  2023 12  1.3433  7.760148  1.003505  211.4531  314.8433  158.0246  20220610   6.0  4.0  C/2021 A9 (PANSTARRS)                                    MPEC 2022-K19
    CK21A100  2021 03 15.4113  1.265481  0.986595   82.4567  188.6344  151.8879  20220610  19.0  4.0  C/2021 A10 (NEOWISE)                                     MPEC 2021-N06
    CK21B020  2021 05  4.2690  2.512616  0.992827  334.9640  120.5497   38.0896  20220610  14.0  4.0  C/2021 B2 (PANSTARRS)                                    MPEC 2022-L66
    CK21B030  2021 03 10.8432  2.160250  0.937884  293.5512   67.2858  119.4818  20220610  13.5  4.0  C/2021 B3 (NEOWISE)                                      MPEC 2021-N06
    CK21C010  2020 12  7.0860  3.480306  0.999968  336.2911  186.8985  143.0451  20220610  11.5  4.0  C/2021 C1 (Rankin)                                       MPEC 2022-ED3
    PK21C020  2021 02 23.9189  4.889321  0.487217   78.7642   66.4741   21.9296  20220610  12.0  4.0  P/2021 C2 (PANSTARRS)                                    MPEC 2021-U31
    CK21C030  2021 02 12.3659  2.275667  0.963776  357.1222  181.9277  122.1643  20220610  14.0  4.0  C/2021 C3 (Catalina)                                     MPEC 2021-N06
    CK21C040  2021 01 17.1171  4.503841  0.999901  320.2299  194.2766  132.8519  20220610   9.0  4.0  C/2021 C4 (ATLAS)                                        MPEC 2022-H30
    CK21C050  2023 02 11.0655  3.241866  0.999094  270.9193  323.6891   50.7838  20220610   9.0  4.0  C/2021 C5 (PANSTARRS)                                    MPEC 2022-L66
    CK21C060  2021 11 13.2841  3.271139  1.001452  203.5544  332.1556  164.6258  20220610  12.0  4.0  C/2021 C6 (Lemmon)                                       MPEC 2022-F14
    CK21D010  2021 02 27.6613  0.901820  0.990851   72.2395  311.2660   31.4527  20220610  13.0  4.0  C/2021 D1 (SWAN)                                         MPEC 2022-F14
    CK21D020  2022 02  3.9821  2.946301  1.001599  125.0292  305.6800   83.8291  20220610   9.0  4.0  C/2021 D2 (ZTF)                                          MPEC 2022-K19
    AK21E020  2020 12 10.4658  2.287138  0.990236  342.4437  190.8217  167.4883  20220610  15.0  2.0  A/2021 E2                                                MPEC 2021-N06
    CK21E030  2022 06 11.9100  1.777379  1.000884  228.8496  104.4684  112.5547  20220610   8.5  4.0  C/2021 E3 (ZTF)                                          MPEC 2022-L66
    AK21E040  2022 04 25.2989  4.675988  0.993023   48.2742  171.1743  116.3616  20220610  13.5  2.0  A/2021 E4                                                MPEC 2022-L66
    CK21F010  2022 04  6.8731  0.995471  0.995809  146.8223  203.4517  107.3252  20220610  13.5  4.0  C/2021 F1 (Lemmon-PANSTARRS)                             MPEC 2022-L66
    CK21G010  2021 07 22.1561  3.423425  0.954341  107.4713  270.6991  131.5597  20220610  14.0  4.0  C/2021 G1 (Leonard)                                      MPEC 2021-J72
    CK21G020  2024 09 10.0145  4.979254  0.998714  343.3645  221.1114   48.4725  20220610   5.5  4.0  C/2021 G2 (ATLAS)                                        MPEC 2022-L66
    CK21G030  2021 10 18.6162  5.181538  1.001602   10.6503  147.4214  102.8905  20220610  10.5  4.0  C/2021 G3 (PANSTARRS)                                    MPEC 2022-ED3
    PK21H00S  2021 08  6.3703  0.796621  0.810076   46.0906  262.3906   12.1698  20220610  22.0  4.0  P/2021 HS (PANSTARRS)                                    MPEC 2021-Y10
    CK21J010  2021 02 19.4426  1.740973  0.934143  147.3337   88.3287   92.7200  20220610  15.5  4.0  C/2021 J1 (Maury-Attard)                                 MPEC 2022-C56
    CK21J020  2021 09 22.4499  4.706433  0.960063  172.0555   23.3310  156.2109  20220610  12.0  4.0  C/2021 J2 (PANSTARRS)                                    MPEC 2022-L66
    PK21J030  2019 07  5.2163  4.918450  0.449976  126.0364  111.1896   14.5427  20220610   7.0  4.0  P/2021 J3 (ATLAS)                                        MPEC 2021-S45
    CK21K010  2021 05  4.4359  2.497675  0.803243  184.2796  140.9021   16.2758  20220610  11.0  4.0  C/2021 K1 (ATLAS)                                        MPEC 2022-ED3
    CK21K020  2021 09  9.3905  5.467402  1.001093  343.3494  282.2455  100.8452  20220610   8.0  4.0  C/2021 K2 (MASTER)                                       MPEC 2022-GA9
    CK21K030  2022 02  2.9216  5.229609  1.002849  182.0230  114.4519  134.7739  20220610  10.0  4.0  C/2021 K3 (Catalina)                                     MPEC 2022-L66
    PK21L020  2021 07 24.4353  1.938333  0.521415   51.5160  266.6569   21.0700  20220610  17.0  4.0  P/2021 L2 (Leonard)                                      MPEC 2021-W31
    CK21L030  2022 02 13.5766  8.457849  1.001862   91.5893  344.9685   78.5801  20220610   6.0  4.0  C/2021 L3 (Borisov)                                      MPEC 2022-K19
    PK21L040  2019 09  3.5031  2.789983  0.118536  234.5557  243.2221   16.9609  20220610  13.5  4.0  P/2021 L4 (PANSTARRS)                                    MPEC 2022-L66
    PK21N010  2021 06  6.5394  0.962592  0.676703   21.2036  301.1673   11.5045  20220610  19.0  4.0  P/2021 N1 (ZTF)                                          MPEC 2021-P47
    PK21N020  2021 11 13.4317  3.796718  0.452401  177.3671  221.7417   13.0624  20220610   9.5  4.0  P/2021 N2 (Fuls)                                         MPEC 2022-GA9
    CK21N030  2020 08 19.7474  5.712688  0.964052  304.7231  337.4942   26.7455  20220610   8.5  4.0  C/2021 N3 (PANSTARRS)                                    MPEC 2022-L66
    CK21O010  2021 08 13.9316  0.786655  0.999688   74.4424   41.6087   27.5786  20220610  10.5  4.0  C/2021 O1 (Nishimura)                                    MPEC 2022-A21
    CK21O030  2022 04 21.0462  0.287346  1.000105  299.9883  189.0185   56.7939  20220610  10.5  4.0  C/2021 O3 (PANSTARRS)                                    MPEC 2022-L66
    CK21P010  2022 06  2.1643  4.374092  0.998656   40.4269  359.6761   51.6364  20220610  11.0  4.0  C/2021 P1 (PANSTARRS)                                    MPEC 2022-CN4
    CK21P020  2023 01 22.1650  5.069770  0.998834   76.6085   32.0568  150.0561  20220610   9.0  4.0  C/2021 P2 (PANSTARRS)                                    MPEC 2022-C56
    PK21P030  2021 05 30.4946  2.915675  0.339536  334.1251  358.2397   27.1617  20220610  14.0  4.0  P/2021 P3 (PANSTARRS)                                    MPEC 2021-W31
    CK21P040  2022 07 30.3701  1.080457  0.996627  175.8208  348.0944   56.3108  20220610   9.5  4.0  C/2021 P4 (ATLAS)                                        MPEC 2022-L66
    CK21Q030  2022 01 26.1255  5.204585  0.930676  114.0949  307.9041   77.7753  20220610   8.0  4.0  C/2021 Q3 (ATLAS)                                        MPEC 2022-GA9
    CK21Q040  2023 06  9.5689  7.565509  1.003348  146.9395  183.3342   71.4726  20220610   6.0  4.0  C/2021 Q4 (Fuls)                                         MPEC 2022-GA9
    PK21Q050  2021 08 30.4467  1.234439  0.624341  180.9019  239.7662   10.7346  20220610  15.0  4.0  P/2021 Q5 (ATLAS)                                        MPEC 2022-C56
    CK21Q060  2024 03 22.2303  8.712703  0.998894  140.8521  133.5359  161.8473  20220610   6.0  4.0  C/2021 Q6 (PANSTARRS)                                    MPEC 2022-C56
